LIGHTSAIL 2-------------
1 44420U 19036AC  19340.46556181  .00003824  00000-0  84046-3 0  9998
2 44420  24.0081 251.7377 0024620 178.0286 182.0377 14.53823633 22032